#aV2006 11 15  0  0   .00000000      96 DD+AD WGS84 FIT  NGA
## 1401 259200.00000000   900.00000000 54054  .0000000000000
+   30     1  2  3  4  5  6  7  8  9 10 11 13 14 15 16 17 18
+         19 20 21 22 23 24 25 26 27 28 29 30 31  0  0  0  0
+          0  0  0  0  0  0  0  0  0  0  0  0  0  0  0  0  0
+          0  0  0  0  0  0  0  0  0  0  0  0  0  0  0  0  0
+          0  0  0  0  0  0  0  0  0  0  0  0  0  0  0  0  0
++         0  0  0  0  0  0  0  0  0  0  0  0  0  0  0  0  0
++         0  0  0  0  0  0  0  0  0  0  0  0  0  0  0  0  0
++         0  0  0  0  0  0  0  0  0  0  0  0  0  0  0  0  0
++         0  0  0  0  0  0  0  0  0  0  0  0  0  0  0  0  0
++         0  0  0  0  0  0  0  0  0  0  0  0  0  0  0  0  0
%c cc cc ccc ccc cccc cccc cccc cccc ccccc ccccc ccccc ccccc
%c cc cc ccc ccc cccc cccc cccc cccc ccccc ccccc ccccc ccccc
%f  0.0000000  0.000000000  0.00000000000  0.000000000000000
%f  0.0000000  0.000000000  0.00000000000  0.000000000000000
%i    0    0    0    0      0      0      0      0         0
%i    0    0    0    0      0      0      0      0         0
/*      NGA, ST. LOUIS,MO.                                  
/*   EPHEMERIS COMPUTED FROM  3 DAYS OF DATA                
/* CCCCCCCCCCCCCCCCCCCCCCCCCCCCCCCCCCCCCCCCCCCCCCCCCCCCCCCCC
/* CCCCCCCCCCCCCCCCCCCCCCCCCCCCCCCCCCCCCCCCCCCCCCCCCCCCCCCCC
*  2006 11 15 17 30   .00000000                                                 
P  1  17829.154275   8811.396322 -17434.167158     89.232033                    
V  1   9670.398809  20299.470118  19851.219118       .025484                    
P  2 -17773.223408   3097.798352 -19653.936561     54.929151                    
V  2  10555.112271 -22222.288427 -13443.692381       .036300                    
P  3  19183.639994   3139.654730  18041.768462    399.004480                    
V  3  12310.209830  19880.995816 -16048.735928       .308892                    
P  4 -11771.311342 -10403.943532 -21433.073935    336.685380                    
V  4  14010.765302 -23303.421253   3982.821352       .041823                    
P  5 -16141.827095  13621.783536 -16239.906012    365.434630                    
V  5 -20462.001776   -256.682312  20565.526415       .282915                    
P  6   3980.644544  23002.349266 -12428.927731    549.503862                    
V  6 -11386.827091 -11875.420543 -25300.635912      -.135965                    
P  7  16615.249365  20497.942815   2821.351024    494.909848                    
V  7  -1210.678386   4697.280232 -30965.208775      -.076872                    
P  8  -3663.533902 -18228.729522  18656.260380    -86.248580                    
V  8  13844.712074 -19771.380758 -16902.611493      -.011215                    
P  9 -15365.167124  20275.435546   6605.610762     44.759880                    
V  9   1534.136939  -9529.507513  30446.529063       .016701                    
P 10 -26646.158351   1079.363699   1780.021353     92.866269                    
V 10  -2343.839495  -2224.105446 -31675.899128       .005896                    
P 11  12802.187070 -22427.705508   5473.867048     -4.406073                    
V 11   2164.380293   8435.672316  29334.519891       .017007                    
P 13  -4680.773428 -23571.462396 -11445.447706    113.066273                    
V 13   8296.543381  11781.948947 -27834.352682       .036700                    
P 14  15658.970502  20994.968166  -4565.950786      -.949382                    
V 14   1325.114119   6018.793242  31595.170519       .009765                    
P 15   4891.358455  17354.895734  19220.286230     96.228623                    
V 15 -14965.812560  19907.423154 -14497.544842       .415442                    
P 16  26518.956737   1199.283776  -1977.535862     92.105349                    
V 16  -2578.281140   2681.318606 -31580.127688       .037326                    
P 17 -15977.744505 -20848.662239  -4330.357724     89.556436                    
V 17   -492.594428  -6081.378219  31034.421818      -.011723                    
P 18   3905.343418  15307.209087  21516.138425   -252.591903                    
V 18 -26994.274469   -344.021882   4857.506448      -.004753                    
P 19  13709.613463  -6843.412258  21793.360213     34.599707                    
V 19  12670.497878  24348.096449   -243.561767       .038907                    
P 20  13477.764565 -13513.300449 -18544.527289    -21.817610                    
V 20  23433.159928    888.548645  16493.744812       .000388                    
P 21  -1186.963759  22162.094764  14261.845783     61.479411                    
V 21 -11867.263034  14139.422868 -23650.902013       .014897                    
P 22  17116.780521  12210.705231  16405.043176    149.496169                    
V 22 -20591.939974   1290.120302  20709.083592       .027034                    
P 23   4739.547199 -17699.811087 -19239.368885    140.501245                    
V 23  13645.966256  20141.960766 -15421.449612       .007721                    
P 24 -16684.762186   -504.588459 -20541.436565     52.594564                    
V 24  13294.753573 -22883.356266  -9843.210394       .030161                    
P 25  14954.594412   3301.926570 -21312.112197    404.955443                    
V 25 -10940.123901  25791.997001  -3461.932706       .036411                    
P 26 -13481.187634   5237.647358  21894.584865     -5.805850                    
V 26 -14112.600332 -24971.156794  -2115.783128      -.162793                    
P 27   2245.871981 -23846.304633  11763.725193     78.207696                    
V 27   8255.514153 -11690.375673 -26982.035718       .019363                    
P 28 -13712.148218 -13269.427764  18920.181973     14.203105                    
V 28  23281.815616  -1110.163123  16009.518160      -.008375                    
P 29 -15825.172003   1336.949562  21573.290540    196.475380                    
V 29 -13598.425793 -23002.501212  -8334.286559       .285160                    
P 30  -3271.722895  15712.140830 -21454.526657     16.504831                    
V 30 -26599.574993    913.983784   4905.584016       .011579                    
P 31  13795.957002   6315.072120 -21608.384097    -43.679926                    
V 31 -13312.184497  24519.858059  -1282.458379       .099836                    
EOF
